{
  "norad_id": 43184,
  "name": "LEMUR-2-KADI",
  "history": [
    {
      "epoch": "2026-03-28T18:33:58.235616Z",
      "apogee_km": 367.50263633864597,
      "perigee_km": 360.566290337164,
      "latitude_deg": 3.675131704984884e-05,
      "longitude_deg": -91.07437484243401,
      "height_km": 369.45617697820165,
      "semi_major_axis_km": 6742.171463337905,
      "eccentricity": 0.0005144,
      "inclination_deg": 97.464,
      "raan_deg": 13.6075,
      "arg_perigee_deg": 130.977,
      "mean_anomaly_deg": 229.1937,
      "mean_motion_rev_day": 15.6820586
    }
  ]
}